OBJECT_NAME,OBJECT_ID,EPOCH,MEAN_MOTION,ECCENTRICITY,INCLINATION,RA_OF_ASC_NODE,ARG_OF_PERICENTER,MEAN_ANOMALY,EPHEMERIS_TYPE,CLASSIFICATION_TYPE,NORAD_CAT_ID,ELEMENT_SET_NO,REV_AT_EPOCH,BSTAR,MEAN_MOTION_DOT,MEAN_MOTION_DDOT
CENTISPACE-1 S4,2022-108B,2026-06-20T09:43:31.010592,14.61938143,.0008747,53.5315,39.4550,352.3834,7.7007,0,U,53758,999,20203,.1259E-3,.445E-5,0
BLUEWALKER-3,2022-111AL,2026-06-20T07:09:39.250080,15.38306331,.0006058,53.2300,19.3650,169.9503,190.1625,0,U,53807,999,21068,.14158E-3,.5034E-4,0
YUNHAI-1 03,2022-115A,2026-06-21T12:25:00.467328,14.32720824,.0005599,98.5533,170.6095,45.3654,314.7985,0,U,53877,999,19613,.11187E-3,.261E-5,0
CENTISPACE-1 S5,2022-126A,2026-06-20T10:21:20.412000,14.63017482,.0014668,54.9972,199.9776,78.4213,281.8427,0,U,54020,999,19751,.96681E-4,.31E-5,0
CENTISPACE-1 S6,2022-126B,2026-06-20T10:13:49.473120,14.62292443,.0016501,54.9975,201.8788,78.6402,281.6444,0,U,54021,999,19747,.53383E-4,.82E-6,0
OTB-3-GAZELLE,2022-127A,2026-06-20T09:19:59.348640,14.42675448,.0013203,98.3944,163.0445,173.4675,186.6689,0,U,54023,999,19482,.45543E-4,.108E-5,0
ASO-S,2022-129A,2026-06-21T12:37:36.177888,14.52063397,.0015749,98.2747,177.5445,80.5637,279.7338,0,U,54029,999,19605,.45552E-4,.14E-5,0
HJ-2E,2022-132A,2026-06-21T11:48:02.356416,15.22369453,.0019954,97.3801,176.7903,0.1838,359.9402,0,U,54035,999,20507,.30025E-3,.6898E-4,0
COSMOS 2561,2022-137A,2026-06-21T13:07:51.309696,15.51796509,.0010077,96.9173,231.3852,21.1756,338.9912,0,U,54109,999,20702,.18648E-3,.11071E-3,0
GONETS-M 23,2022-139A,2026-06-21T12:41:54.860352,12.42891026,.002106,82.5072,345.5955,209.8949,150.0930,0,U,54150,999,16618,.21093E-3,.39E-6,0
GONETS-M 24,2022-139B,2026-06-21T12:03:09.586656,12.42891595,.0016139,82.4990,344.6691,220.0932,139.8958,0,U,54151,999,16618,.20138E-3,.38E-6,0
GONETS-M 25,2022-139C,2026-06-21T11:43:33.932352,12.42890143,.0020071,82.5055,345.3662,219.0334,140.9298,0,U,54152,999,16618,.17936E-3,.35E-6,0
SKIF-D,2022-139D,2026-06-21T06:05:45.369312,5.00427053,.0007391,89.9506,96.6667,197.6140,162.4126,0,U,54153,999,6431,0,0,0
MATS,2022-147A,2026-06-20T10:32:06.772992,15.05366283,.0012446,97.6814,173.0214,181.1993,178.9206,0,U,54227,999,19825,.15391E-3,.2146E-4,0
JILIN-1 GAOFEN 03D54,2022-155D,2026-06-21T12:39:31.433760,16.01883601,.0007234,97.6165,326.2356,261.5725,98.4734,0,U,54254,999,20099,.72349E-3,.408745E-2,.75457E-4
EOS-6 (OCEANSAT-3),2022-158A,2026-06-21T12:27:29.085696,14.47002510,.0000999,98.3543,270.6558,46.6434,313.4842,0,U,54361,999,18846,.63725E-4,.188E-5,0
DONGPO 09,2022-167D,2026-06-21T12:18:59.716224,15.36418236,.0003623,97.6908,343.7130,106.5260,253.6382,0,U,54685,999,19611,.2761E-3,.9725E-4,0
DONGPO 08,2022-167E,2026-06-21T12:01:49.126656,15.33720520,.0008968,97.6872,340.8582,146.5204,213.6606,0,U,54686,999,19598,.27568E-3,.8917E-4,0
2022-167F,2022-167F,2026-06-21T08:29:52.158624,15.94572901,.0002032,97.6080,0.7970,231.4685,128.6407,0,U,54687,999,19749,.64316E-3,.241483E-2,.24674E-4
DONGPO 10,2022-167H,2026-06-21T12:08:06.502848,15.34530087,.0006314,97.6952,342.8245,98.0658,262.1300,0,U,54689,999,19602,.27374E-3,.9078E-4,0
JILIN-1 GAOFEN 03D48,2022-167P,2026-06-21T12:01:41.971008,15.35300729,.0007664,97.6887,342.1993,102.2647,257.9454,0,U,54695,999,19605,.28196E-3,.959E-4,0
STAR VIBE,2023-001A,2026-06-21T12:23:29.627232,15.42717908,.0007174,97.3165,236.9980,100.7788,259.4267,0,U,55009,999,19289,.28474E-3,.1236E-3,0
BRO-8,2023-001C,2026-06-21T12:07:17.247072,15.49292543,.000676,97.3211,237.7516,112.7451,247.4515,0,U,55011,999,19287,.50636E-3,.27668E-3,0
CONNECTA T1.2,2023-001D,2026-06-20T11:04:42.383424,15.50940310,.0006391,97.3260,242.2112,93.6454,266.5529,0,U,55012,999,19305,.61208E-3,.35498E-3,0
BIRKELAND,2023-001G,2026-06-21T11:59:32.334720,15.40136774,.0008318,97.3342,240.4808,93.1644,267.0554,0,U,55015,999,19301,.18177E-3,.7208E-4,0
ION SCV-008,2023-001AU,2026-06-21T07:07:01.354944,15.28615818,.0014625,97.5709,268.6834,4.2050,355.9309,0,U,55051,999,19196,.18136E-3,.4984E-4,0
ION SCV-007,2023-001BD,2026-06-20T10:45:53.285760,14.77555756,.0011566,97.9005,234.3988,331.2423,28.8148,0,U,55060,999,18673,.48956E-4,.299E-5,0
HUYGENS,2023-001CN,2026-06-21T11:59:39.429888,15.40138490,.0010873,97.3246,239.7051,73.3175,286.9264,0,U,55093,999,19303,.18395E-3,.7302E-4,0
SHARJAHSAT-1,2023-001CZ,2026-06-21T10:34:33.931200,15.49208363,.0006832,97.3168,241.2657,91.3194,268.8840,0,U,55104,999,19315,.32572E-3,.1769E-3,0
HORUS 1,2023-025A,2026-06-21T11:43:20.390016,15.23298770,.0001697,97.3459,246.9936,145.3479,214.7869,0,U,55690,999,18470,.18808E-3,.4392E-4,0
