[
  {
    "name": "CENTISPACE-1 S4",
    "line1": "1 53758U 22108B   26171.40522003  .00000445  00000+0  12590-3 0  9996",
    "line2": "2 53758  53.5315  39.4550 0008747 352.3834   7.7007 14.61938143202030"
  },
  {
    "name": "BLUEWALKER-3",
    "line1": "1 53807U 22111AL  26171.29837095  .00005034  00000+0  14158-3 0  9993",
    "line2": "2 53807  53.2300  19.3650 0006058 169.9503 190.1625 15.38306331210688"
  },
  {
    "name": "YUNHAI-1 03",
    "line1": "1 53877U 22115A   26172.51736652  .00000261  00000+0  11187-3 0  9993",
    "line2": "2 53877  98.5533 170.6095 0005599  45.3654 314.7985 14.32720824196138"
  },
  {
    "name": "CENTISPACE-1 S5",
    "line1": "1 54020U 22126A   26171.43148625  .00000310  00000+0  96681-4 0  9991",
    "line2": "2 54020  54.9972 199.9776 0014668  78.4213 281.8427 14.63017482197518"
  },
  {
    "name": "CENTISPACE-1 S6",
    "line1": "1 54021U 22126B   26171.42626705  .00000082  00000+0  53383-4 0  9999",
    "line2": "2 54021  54.9975 201.8788 0016501  78.6402 281.6444 14.62292443197471"
  },
  {
    "name": "OTB-3-GAZELLE",
    "line1": "1 54023U 22127A   26171.38888135  .00000108  00000+0  45543-4 0  9992",
    "line2": "2 54023  98.3944 163.0445 0013203 173.4675 186.6689 14.42675448194821"
  },
  {
    "name": "ASO-S",
    "line1": "1 54029U 22129A   26172.52611317  .00000140  00000+0  45552-4 0  9999",
    "line2": "2 54029  98.2747 177.5445 0015749  80.5637 279.7338 14.52063397196057"
  },
  {
    "name": "HJ-2E",
    "line1": "1 54035U 22132A   26172.49169394  .00006898  00000+0  30025-3 0  9993",
    "line2": "2 54035  97.3801 176.7903 0019954   0.1838 359.9402 15.22369453205074"
  },
  {
    "name": "COSMOS 2561",
    "line1": "1 54109U 22137A   26172.54712164  .00011071  00000+0  18648-3 0  9991",
    "line2": "2 54109  96.9173 231.3852 0010077  21.1756 338.9912 15.51796509207021"
  },
  {
    "name": "GONETS-M 23",
    "line1": "1 54150U 22139A   26172.52910718  .00000039  00000+0  21093-3 0  9992",
    "line2": "2 54150  82.5072 345.5955 0021060 209.8949 150.0930 12.42891026166182"
  },
  {
    "name": "GONETS-M 24",
    "line1": "1 54151U 22139B   26172.50219429  .00000038  00000+0  20138-3 0  9990",
    "line2": "2 54151  82.4990 344.6691 0016139 220.0932 139.8958 12.42891595166182"
  },
  {
    "name": "GONETS-M 25",
    "line1": "1 54152U 22139C   26172.48858718  .00000035  00000+0  17936-3 0  9997",
    "line2": "2 54152  82.5055 345.3662 0020071 219.0334 140.9298 12.42890143166184"
  },
  {
    "name": "SKIF-D",
    "line1": "1 54153U 22139D   26172.25399733  .00000000  00000+0  00000+0 0  9992",
    "line2": "2 54153  89.9506  96.6667 0007391 197.6140 162.4126  5.00427053 64317"
  },
  {
    "name": "MATS",
    "line1": "1 54227U 22147A   26171.43896728  .00002146  00000+0  15391-3 0  9994",
    "line2": "2 54227  97.6814 173.0214 0012446 181.1993 178.9206 15.05366283198251"
  },
  {
    "name": "JILIN-1 GAOFEN 03D54",
    "line1": "1 54254U 22155D   26172.52744715  .00408745  75457-4  72349-3 0  9996",
    "line2": "2 54254  97.6165 326.2356 0007234 261.5725  98.4734 16.01883601200996"
  },
  {
    "name": "EOS-6 (OCEANSAT-3)",
    "line1": "1 54361U 22158A   26172.51908664  .00000188  00000+0  63725-4 0  9997",
    "line2": "2 54361  98.3543 270.6558 0000999  46.6434 313.4842 14.47002510188466"
  },
  {
    "name": "DONGPO 09",
    "line1": "1 54685U 22167D   26172.51319116  .00009725  00000+0  27610-3 0  9992",
    "line2": "2 54685  97.6908 343.7130 0003623 106.5260 253.6382 15.36418236196110"
  },
  {
    "name": "DONGPO 08",
    "line1": "1 54686U 22167E   26172.50126304  .00008917  00000+0  27568-3 0  9991",
    "line2": "2 54686  97.6872 340.8582 0008968 146.5204 213.6606 15.33720520195987"
  },
  {
    "name": "2022-167F",
    "line1": "1 54687U 22167F   26172.35407591  .00241483  24674-4  64316-3 0  9992",
    "line2": "2 54687  97.6080   0.7970 0002032 231.4685 128.6407 15.94572901197492"
  },
  {
    "name": "DONGPO 10",
    "line1": "1 54689U 22167H   26172.50563082  .00009078  00000+0  27374-3 0  9996",
    "line2": "2 54689  97.6952 342.8245 0006314  98.0658 262.1300 15.34530087196028"
  },
  {
    "name": "JILIN-1 GAOFEN 03D48",
    "line1": "1 54695U 22167P   26172.50118022  .00009590  00000+0  28196-3 0  9995",
    "line2": "2 54695  97.6887 342.1993 0007664 102.2647 257.9454 15.35300729196054"
  },
  {
    "name": "STAR VIBE",
    "line1": "1 55009U 23001A   26172.51631513  .00012360  00000+0  28474-3 0  9997",
    "line2": "2 55009  97.3165 236.9980 0007174 100.7788 259.4267 15.42717908192897"
  },
  {
    "name": "BRO-8",
    "line1": "1 55011U 23001C   26172.50506073  .00027668  00000+0  50636-3 0  9993",
    "line2": "2 55011  97.3211 237.7516 0006760 112.7451 247.4515 15.49292543192877"
  },
  {
    "name": "CONNECTA T1.2",
    "line1": "1 55012U 23001D   26171.46160166  .00035498  00000+0  61208-3 0  9994",
    "line2": "2 55012  97.3260 242.2112 0006391  93.6454 266.5529 15.50940310193057"
  },
  {
    "name": "BIRKELAND",
    "line1": "1 55015U 23001G   26172.49967980  .00007208  00000+0  18177-3 0  9995",
    "line2": "2 55015  97.3342 240.4808 0008318  93.1644 267.0554 15.40136774193010"
  },
  {
    "name": "ION SCV-008",
    "line1": "1 55051U 23001AU  26172.29654346  .00004984  00000+0  18136-3 0  9995",
    "line2": "2 55051  97.5709 268.6834 0014625   4.2050 355.9309 15.28615818191966"
  },
  {
    "name": "ION SCV-007",
    "line1": "1 55060U 23001BD  26171.44853340  .00000299  00000+0  48956-4 0  9995",
    "line2": "2 55060  97.9005 234.3988 0011566 331.2423  28.8148 14.77555756186730"
  },
  {
    "name": "HUYGENS",
    "line1": "1 55093U 23001CN  26172.49976192  .00007302  00000+0  18395-3 0  9993",
    "line2": "2 55093  97.3246 239.7051 0010873  73.3175 286.9264 15.40138490193035"
  },
  {
    "name": "SHARJAHSAT-1",
    "line1": "1 55104U 23001CZ  26172.44067050  .00017690  00000+0  32572-3 0  9999",
    "line2": "2 55104  97.3168 241.2657 0006832  91.3194 268.8840 15.49208363193150"
  },
  {
    "name": "HORUS 1",
    "line1": "1 55690U 23025A   26172.48843044  .00004392  00000+0  18808-3 0  9995",
    "line2": "2 55690  97.3459 246.9936 0001697 145.3479 214.7869 15.23298770184700"
  }
]